[{"OBJECT_NAME":"STARLINK-3579","OBJECT_ID":"2022-022AT","EPOCH":"2026-03-09T22:27:05.868576","MEAN_MOTION":15.0884886,"ECCENTRICITY":0.00014543,"INCLINATION":53.2192,"RA_OF_ASC_NODE":358.0164,"ARG_OF_PERICENTER":85.7274,"MEAN_ANOMALY":274.3885,"EPHEMERIS_TYPE":0,"CLASSIFICATION_TYPE":"U","NORAD_CAT_ID":51893,"ELEMENT_SET_NO":999,"REV_AT_EPOCH":22334,"BSTAR":-0.0001560884,"MEAN_MOTION_DOT":-2.772e-5,"MEAN_MOTION_DDOT":0},{"OBJECT_NAME":"JILIN-01 KUANFU 02B 4","OBJECT_ID":"2024-169D","EPOCH":"2026-03-09T23:04:43.463424","MEAN_MOTION":15.0922271,"ECCENTRICITY":0.00080501,"INCLINATION":97.5522,"RA_OF_ASC_NODE":159.355,"ARG_OF_PERICENTER":260.1533,"MEAN_ANOMALY":99.8787,"EPHEMERIS_TYPE":0,"CLASSIFICATION_TYPE":"U","NORAD_CAT_ID":61192,"ELEMENT_SET_NO":999,"REV_AT_EPOCH":8086,"BSTAR":0.00035789888,"MEAN_MOTION_DOT":5.634e-5,"MEAN_MOTION_DDOT":0}]
